IRIDIUM 155             
1 43573U 18061E   23302.14275992  .00000092  00000+0  25869-4 0  9991
2 43573  86.3920  98.7700 0001838  90.3633 269.7773 14.34217376275471
IRIDIUM 154             
1 43574U 18061F   23301.91442381  .00000156  00000+0  48659-4 0  9997
2 43574  86.3924  98.9522 0002252  85.8830 274.2623 14.34218931275483
IRIDIUM 163             
1 43575U 18061G   23302.17447127 -.00000338  00000+0 -12795-3 0  9995
2 43575  86.3928  98.7890 0002090  89.2531 270.8905 14.34215122275495
IRIDIUM 156             
1 43576U 18061H   23301.93980093  .00000155  00000+0  48422-4 0  9995
2 43576  86.3922  98.8928 0002045  97.4571 262.6857 14.34218390275459
IRIDIUM 164             
1 43577U 18061J   23301.92076791  .00000008  00000+0 -40573-5 0  9994
2 43577  86.3922  98.9261 0002176  94.8723 265.2721 14.34216813275497
IRIDIUM 159             
1 43578U 18061K   23301.88905349  .00000158  00000+0  49368-4 0  9995
2 43578  86.3922  98.8966 0002075  88.5581 271.5852 14.34218611275458
IRIDIUM 180             
1 43922U 19002A   23301.74902141  .00000511  00000+0  17554-3 0  9990
2 43922  86.4014  35.8101 0002389  93.0028 267.1441 14.34216738251043
IRIDIUM 176             
1 43923U 19002B   23301.73611885  .00002021  00000+0  31685-3 0  9991
2 43923  86.6140  35.8483 0002292  91.5172 268.6308 14.72225976257641
IRIDIUM 168             
1 43924U 19002C   23301.81244408  .00000525  00000+0  18025-3 0  9994
2 43924  86.4016  35.8336 0002259  91.3235 268.8220 14.34218259251036
IRIDIUM 173             
1 43925U 19002D   23301.79975678  .00000519  00000+0  17833-3 0  9991
2 43925  86.4013  35.7673 0002196  91.9385 268.2062 14.34219525251023
IRIDIUM 169             
1 43926U 19002E   23301.87856146  .00000664  00000+0  21047-3 0  9992
2 43926  86.4219  67.3463 0000992 277.7622  82.3463 14.38602007251878
IRIDIUM 172             
1 43927U 19002F   23301.79341238  .00000417  00000+0  14196-3 0  9998
2 43927  86.4013  35.7748 0002234  91.9339 268.2113 14.34216771251027
IRIDIUM 175             
1 43928U 19002G   23301.93392458  .00001607  00000+0  25100-3 0  9994
2 43928  86.1559  22.0459 0002264  93.5269 266.6207 14.72216746257667
IRIDIUM 171             
1 43929U 19002H   23302.19299701  .00000551  00000+0  18984-3 0  9990
2 43929  86.4022  35.8077 0002266  95.4488 264.6967 14.34217703251072
IRIDIUM 170             
1 43930U 19002J   23301.81026353  .00000027  00000+0  31202-6 0  9990
2 43930  86.6156  35.8217 0002366  95.6583 264.4904 14.72220958257667
IRIDIUM 167             
1 43931U 19002K   23301.76804161  .00000527  00000+0  18115-3 0  9996
2 43931  86.4012  35.7994 0002203  97.7775 262.3671 14.34217108251016
IRIDIUM 181             
1 56726U 23068S   23301.89656447  .00000213  00000+0  56965-4 0  9993
2 56726  86.8607  78.2159 0002609 118.0347 242.1119 14.43572151 23622
IRIDIUM 177             
1 56727U 23068T   23301.81080608  .00002390  00000+0  31114-3 0  9992
2 56727  86.1978  65.6667 0002365  94.1272 266.0219 14.80215265 24001
IRIDIUM 174             
1 56728U 23068U   23301.80537538  .00002843  00000+0  37075-3 0  9996
2 56728  86.1983  65.7550 0002100  90.0168 270.1293 14.80215405 24000
IRIDIUM 178             
1 56729U 23068V   23301.86751961  .00002807  00000+0  36612-3 0  9997
2 56729  86.5772  72.1803 0002343  79.6568 280.4917 14.80216765 24018
IRIDIUM 179             
1 56730U 23068W   23301.86212778  .00002869  00000+0  37416-3 0  9998
2 56730  86.6775  73.3921 0002277  90.6308 269.5174 14.80235633 24017
